[{"OBJECT_NAME":"AETHER-8","OBJECT_ID":"2026-004S","EPOCH":"2026-03-09T23:37:25.854528","MEAN_MOTION":14.87815417,"ECCENTRICITY":0.00069617,"INCLINATION":97.8009,"RA_OF_ASC_NODE":69.1822,"ARG_OF_PERICENTER":97.7644,"MEAN_ANOMALY":262.4363,"EPHEMERIS_TYPE":0,"CLASSIFICATION_TYPE":"U","NORAD_CAT_ID":67379,"ELEMENT_SET_NO":999,"REV_AT_EPOCH":853,"BSTAR":0.00014657991,"MEAN_MOTION_DOT":1.285e-5,"MEAN_MOTION_DDOT":0},{"OBJECT_NAME":"SL-14 R\/B","OBJECT_ID":"1983-099B","EPOCH":"2026-03-09T17:04:20.967456","MEAN_MOTION":14.8623395,"ECCENTRICITY":0.00204236,"INCLINATION":82.5407,"RA_OF_ASC_NODE":142.538,"ARG_OF_PERICENTER":134.9475,"MEAN_ANOMALY":225.3402,"EPHEMERIS_TYPE":0,"CLASSIFICATION_TYPE":"U","NORAD_CAT_ID":14373,"ELEMENT_SET_NO":999,"REV_AT_EPOCH":27262,"BSTAR":6.6267087e-5,"MEAN_MOTION_DOT":6.09e-6,"MEAN_MOTION_DDOT":0}]
